OBJECT_NAME,OBJECT_ID,EPOCH,MEAN_MOTION,ECCENTRICITY,INCLINATION,RA_OF_ASC_NODE,ARG_OF_PERICENTER,MEAN_ANOMALY,EPHEMERIS_TYPE,CLASSIFICATION_TYPE,NORAD_CAT_ID,ELEMENT_SET_NO,REV_AT_EPOCH,BSTAR,MEAN_MOTION_DOT,MEAN_MOTION_DDOT
BEIDOU-3S IGSO-1S (C31),2015-019A,2026-06-25T19:36:21.900096,1.00249619,.00390379,49.1775,295.3568,191.6631,171.6620,0,U,40549,999,4116,0,-.174E-5,0
GPS BIIF-10 (PRN 08),2015-033A,2026-06-26T04:41:55.246848,2.00555927,.01151546,53.9753,266.7149,30.2445,330.4598,0,U,40730,999,8017,0,-.36E-6,0
BEIDOU-3S M2S (C58),2015-037A,2026-06-23T05:30:54.874656,1.86231957,.00085699,54.8652,301.8377,258.4474,101.4494,0,U,40748,999,7423,0,-.108E-5,0
BEIDOU-3S M1S (C57),2015-037B,2026-06-24T12:14:42.859392,1.86254971,.00032834,54.8605,301.7817,62.2648,297.7606,0,U,40749,999,7426,0,-.109E-5,0
GSAT0206 (GALILEO 10),2015-045B,2026-06-24T11:54:39.024000,1.70473861,.00016854,54.9433,221.4024,336.0482,24.0274,0,U,40890,999,6716,0,.51E-6,0
BEIDOU-3S IGSO-2S (C56),2015-053A,2026-06-25T16:28:33.612960,1.00257859,.00655059,49.2068,258.6794,192.9195,164.0515,0,U,40938,999,3943,0,-.126E-5,0
GPS BIIF-11 (PRN 10),2015-062A,2026-06-25T18:04:12.550656,2.00567225,.0112145,56.9652,30.4811,231.0110,128.0368,0,U,41019,999,7800,0,-.85E-6,0
GSAT-15 (GAGAN/PRN 139),2015-065A,2026-06-26T01:01:14.173824,1.00271331,.00045891,0.0502,263.8085,172.2260,306.9693,0,U,41028,999,3888,0,-.247E-5,0
GSAT0209 (GALILEO 12),2015-079A,2026-06-25T06:01:25.527360,1.70473764,.00050472,55.8320,101.0407,349.0522,10.9102,0,U,41174,999,6491,0,-.38E-6,0
GSAT0208 (GALILEO 11),2015-079B,2026-06-22T12:55:14.356704,1.70473694,.00048395,55.8290,101.1119,343.6998,16.2634,0,U,41175,999,6528,0,-.27E-6,0
IRNSS-1E,2016-003A,2026-06-25T14:21:38.812032,1.00274592,.00190622,33.2517,59.6282,179.1130,2.2203,0,U,41241,999,3816,0,-.319E-5,0
GPS BIIF-12 (PRN 32),2016-007A,2026-06-23T20:24:02.426112,2.00551374,.00958202,55.5277,89.1954,247.3210,111.6653,0,U,41328,999,7597,0,-.6E-6,0
COSMOS 2514 (751),2016-008A,2026-06-23T20:30:55.305792,2.13102654,.00115514,65.0172,312.7777,198.7083,161.2407,0,U,41330,999,8076,0,-.83E-6,0
BEIDOU-2 IGSO-6 (C13),2016-021A,2026-06-24T02:12:21.652992,1.00259092,.00575384,60.2358,37.9691,231.1257,128.7042,0,U,41434,999,3755,0,-.155E-5,0
IRNSS-1G,2016-027A,2026-06-25T08:32:51.614016,1.00276580,.0006269,5.2158,97.2878,2.9813,70.7125,0,U,41469,999,3726,0,-.329E-5,0
GSAT0211 (GALILEO 14),2016-030A,2026-06-23T20:02:59.831808,1.70474023,.00030565,55.0937,221.5119,321.3377,38.7209,0,U,41549,999,6278,0,.46E-6,0
GSAT0210 (GALILEO 13),2016-030B,2026-06-25T06:22:49.933344,1.70473937,.0008659,55.0912,221.4705,257.5264,102.4641,0,U,41550,999,6280,0,.56E-6,0
BEIDOU-2 G7 (C03),2016-037A,2026-06-26T02:48:42.262848,1.00272762,.00068406,1.7426,69.4098,0.9868,356.5771,0,U,41586,999,697,0,-.344E-5,0
EUTELSAT 117 WEST B (WAAS/PRN 131),2016-038B,2026-06-26T00:01:14.882880,1.00273901,.00003457,0.0089,149.5710,105.6280,262.2624,0,U,41589,999,3675,0,-.1E-7,0
GSAT0207 (GALILEO 15),2016-069A,2026-06-23T04:44:56.137344,1.70473659,.00051341,55.5021,100.9199,331.8808,28.0688,0,U,41859,999,5950,0,-.31E-6,0
GSAT0212 (GALILEO 16),2016-069B,2026-06-25T23:37:18.081984,1.70473828,.00044037,55.5014,100.8378,10.9452,349.0377,0,U,41860,999,5980,0,-.39E-6,0
GSAT0213 (GALILEO 17),2016-069C,2026-06-25T04:16:41.547360,1.70474298,.00046296,55.5032,100.8681,315.3374,44.5989,0,U,41861,999,5965,0,-.39E-6,0
GSAT0214 (GALILEO 18),2016-069D,2026-06-21T19:19:10.755840,1.70473560,.00038497,55.5000,100.9540,321.2487,38.7039,0,U,41862,999,5972,0,-.23E-6,0
SES-15 (WAAS/PRN 133),2017-026A,2026-06-24T12:01:53.251392,1.00268280,.00006599,0.0193,335.4736,95.5096,252.9752,0,U,42709,999,750,0,.68E-6,0
QZS-2 (QZSS/PRN 194),2017-028A,2026-06-24T11:39:17.917056,1.00282000,.07593031,39.4163,243.0474,269.3393,77.0374,0,U,42738,999,769,0,-.157E-5,0
QZS-3 (QZSS/PRN 199),2017-048A,2026-06-26T06:18:50.284800,1.00272337,.00022738,0.0665,149.3596,301.8035,44.9829,0,U,42917,999,3235,0,-.337E-5,0
COSMOS 2522 (752),2017-055A,2026-06-24T03:53:00.968064,2.13101107,.00084097,64.0776,191.6387,235.5259,124.4452,0,U,42939,999,6812,0,.104E-5,0
QZS-4 (QZSS/PRN 195),2017-062A,2026-06-25T08:04:47.004960,1.00297191,.0746739,40.1041,343.3808,268.2453,280.8214,0,U,42965,999,3188,0,-.36E-5,0
BEIDOU-3 M1 (C19),2017-069A,2026-06-25T04:29:49.892064,1.86231357,.00099996,56.6993,62.8203,326.6653,33.3105,0,U,43001,999,5875,0,-.93E-6,0
BEIDOU-3 M2 (C20),2017-069B,2026-06-22T23:28:47.231616,1.86230523,.00089923,56.6963,62.9294,352.6727,7.3499,0,U,43002,999,5870,0,-.93E-6,0
GSAT0215 (GALILEO 19),2017-079A,2026-06-25T05:27:54.358272,1.70474697,.00033807,55.0718,221.2853,264.8914,95.1572,0,U,43055,999,5312,0,.57E-6,0
